{"fetched_at":"2026-07-08T07:03:59.482Z","source":"https://celestrak.org/NORAD/elements/gp.php?NAME=ICEYE&FORMAT=JSON","constellation":"iceye","records":[{"OBJECT_NAME":"ICEYE-X72","OBJECT_ID":"2026-067CS","EPOCH":"2026-07-07T19:24:33.960096","CLASSIFICATION_TYPE":"U","MEAN_MOTION":14.94809822,"ECCENTRICITY":0.0000215,"INCLINATION":97.7603,"RA_OF_ASC_NODE":146.8501,"ARG_OF_PERICENTER":138.4686,"MEAN_ANOMALY":221.6551,"EPHEMERIS_TYPE":0,"NORAD_CAT_ID":68504,"ELEMENT_SET_NO":999,"REV_AT_EPOCH":1480,"BSTAR":0.0094744,"MEAN_MOTION_DOT":0.00104542,"MEAN_MOTION_DDOT":0},{"OBJECT_NAME":"ICEYE-X78","OBJECT_ID":"2026-100R","EPOCH":"2026-07-06T15:52:33.045312","CLASSIFICATION_TYPE":"U","MEAN_MOTION":14.91802256,"ECCENTRICITY":0.00038811,"INCLINATION":97.7346,"RA_OF_ASC_NODE":84.7543,"ARG_OF_PERICENTER":71.91,"MEAN_ANOMALY":288.2542,"EPHEMERIS_TYPE":0,"NORAD_CAT_ID":68995,"ELEMENT_SET_NO":999,"REV_AT_EPOCH":960,"BSTAR":0.00011463392,"MEAN_MOTION_DOT":0.00001101,"MEAN_MOTION_DDOT":0},{"OBJECT_NAME":"ICEYE-X82","OBJECT_ID":"2026-100S","EPOCH":"2026-07-07T16:30:05.969376","CLASSIFICATION_TYPE":"U","MEAN_MOTION":14.91403253,"ECCENTRICITY":0.0005887,"INCLINATION":97.7336,"RA_OF_ASC_NODE":85.7108,"ARG_OF_PERICENTER":81.7353,"MEAN_ANOMALY":278.4533,"EPHEMERIS_TYPE":0,"NORAD_CAT_ID":68996,"ELEMENT_SET_NO":999,"REV_AT_EPOCH":975,"BSTAR":0.00015784,"MEAN_MOTION_DOT":0.00001521,"MEAN_MOTION_DDOT":0}]}
