ICEYE-X72               
1 68504U 26067CS  26188.80872639  .00104542  00000+0  94744-2 0  9997
2 68504  97.7603 146.8501 0000215 138.4686 221.6551 14.94809822 14808
ICEYE-X78               
1 68995U 26100R   26187.66149358  .00001101  00000+0  11463-3 0  9992
2 68995  97.7346  84.7543 0003881  71.9100 288.2542 14.91802256  9608
ICEYE-X82               
1 68996U 26100S   26188.68756909  .00001521  00000+0  15784-3 0  9998
2 68996  97.7336  85.7108 0005887  81.7353 278.4533 14.91403253  9754
